{
  "type": "FeatureCollection",
  "features": [
    {
      "type": "Feature",
      "properties": {
        "norad_id": 66454,
        "name": "VIASAT-3 F2",
        "group": "last-30-days",
        "lat": -5.236571333498616,
        "lon": -171.75806350285063,
        "alt_km": 16346.957848950879,
        "timestamp": "2025-12-13T22:39:28.442648+00:00",
        "meta_object_name": "VIASAT-3 F2",
        "meta_object_id": "2025-261A",
        "meta_epoch": "2025-12-12T22:24:17.478432",
        "meta_mean_motion": 2.09869596,
        "meta_eccentricity": 0.2249784,
        "meta_inclination": 5.3891,
        "meta_ra_of_asc_node": 292.3457,
        "meta_arg_of_pericenter": 185.8732,
        "meta_mean_anomaly": 3.755,
        "meta_ephemeris_type": 0,
        "meta_classification_type": "U",
        "meta_norad_cat_id": 66454,
        "meta_element_set_no": 999,
        "meta_rev_at_epoch": 64,
        "meta_bstar": 0,
        "meta_mean_motion_dot": -8.1e-07,
        "meta_mean_motion_ddot": 0,
        "tle_line1": "1 66454U 25261A   25346.93353563 -.00000081  00000+0  00000+0 0  9996",
        "tle_line2": "2 66454   5.3891 292.3457 2249784 185.8732   3.7550  2.09869596   649"
      },
      "geometry": {
        "type": "Point",
        "coordinates": [
          -171.75806350285063,
          -5.236571333498616
        ]
      }
    },
    {
      "type": "Feature",
      "properties": {
        "norad_id": 66455,
        "name": "ATLAS 5 CENTAUR R/B",
        "group": "last-30-days",
        "lat": -6.140423783580716,
        "lon": -162.18581689014167,
        "alt_km": 15745.329444561045,
        "timestamp": "2025-12-13T22:39:28.442705+00:00",
        "meta_object_name": "ATLAS 5 CENTAUR R/B",
        "meta_object_id": "2025-261B",
        "meta_epoch": "2025-12-13T05:33:47.101824",
        "meta_mean_motion": 2.28260007,
        "meta_eccentricity": 0.23294381,
        "meta_inclination": 6.1451,
        "meta_ra_of_asc_node": 291.5668,
        "meta_arg_of_pericenter": 186.583,
        "meta_mean_anomaly": 189.0602,
        "meta_ephemeris_type": 0,
        "meta_classification_type": "U",
        "meta_norad_cat_id": 66455,
        "meta_element_set_no": 999,
        "meta_rev_at_epoch": 66,
        "meta_bstar": 0,
        "meta_mean_motion_dot": -7.4e-07,
        "meta_mean_motion_ddot": 0,
        "tle_line1": "1 66455U 25261B   25347.23179516 -.00000074  00000+0  00000+0 0  9997",
        "tle_line2": "2 66455   6.1451 291.5668 2329438 186.5830 189.0602  2.28260007   669"
      },
      "geometry": {
        "type": "Point",
        "coordinates": [
          -162.18581689014167,
          -6.140423783580716
        ]
      }
    },
    {
      "type": "Feature",
      "properties": {
        "norad_id": 66456,
        "name": "STARLINK-35643",
        "group": "last-30-days",
        "lat": -0.6493308776389073,
        "lon": 63.97570878403545,
        "alt_km": 442.4330022243812,
        "timestamp": "2025-12-13T22:39:28.442725+00:00",
        "meta_object_name": "STARLINK-35643",
        "meta_object_id": "2025-262A",
        "meta_epoch": "2025-12-13T07:06:13.489344",
        "meta_mean_motion": 15.40706429,
        "meta_eccentricity": 0.0003395,
        "meta_inclination": 43.0008,
        "meta_ra_of_asc_node": 68.4084,
        "meta_arg_of_pericenter": 294.7087,
        "meta_mean_anomaly": 65.3416,
        "meta_ephemeris_type": 0,
        "meta_classification_type": "U",
        "meta_norad_cat_id": 66456,
        "meta_element_set_no": 999,
        "meta_rev_at_epoch": 564,
        "meta_bstar": 0.001894817,
        "meta_mean_motion_dot": 0.00079705,
        "meta_mean_motion_ddot": 0,
        "tle_line1": "1 66456U 25262A   25347.29598946  .00079705  00000+0  18948-2 0  9996",
        "tle_line2": "2 66456  43.0008  68.4084 0003395 294.7087  65.3416 15.40706429  5649"
      },
      "geometry": {
        "type": "Point",
        "coordinates": [
          63.97570878403545,
          -0.6493308776389073
        ]
      }
    },
    {
      "type": "Feature",
      "properties": {
        "norad_id": 66457,
        "name": "STARLINK-35466",
        "group": "last-30-days",
        "lat": 16.103501321850736,
        "lon": 82.65740743308065,
        "alt_km": 441.75766618236685,
        "timestamp": "2025-12-13T22:39:28.442738+00:00",
        "meta_object_name": "STARLINK-35466",
        "meta_object_id": "2025-262B",
        "meta_epoch": "2025-12-13T06:59:46.396608",
        "meta_mean_motion": 15.40742084,
        "meta_eccentricity": 0.00028743,
        "meta_inclination": 43.0014,
        "meta_ra_of_asc_node": 68.3721,
        "meta_arg_of_pericenter": 270.121,
        "meta_mean_anomaly": 89.9317,
        "meta_ephemeris_type": 0,
        "meta_classification_type": "U",
        "meta_norad_cat_id": 66457,
        "meta_element_set_no": 999,
        "meta_rev_at_epoch": 564,
        "meta_bstar": 0.0016627344,
        "meta_mean_motion_dot": 0.00069895,
        "meta_mean_motion_ddot": 0,
        "tle_line1": "1 66457U 25262B   25347.29150922  .00069895  00000+0  16627-2 0  9996",
        "tle_line2": "2 66457  43.0014  68.3721 0002874 270.1210  89.9317 15.40742084  5640"
      },
      "geometry": {
        "type": "Point",
        "coordinates": [
          82.65740743308065,
          16.103501321850736
        ]
      }
    },
    {
      "type": "Feature",
      "properties": {
        "norad_id": 66458,
        "name": "STARLINK-35684",
        "group": "last-30-days",
        "lat": 7.96156503856244,
        "lon": 73.27289656121675,
        "alt_km": 442.7101330404812,
        "timestamp": "2025-12-13T22:39:28.442750+00:00",
        "meta_object_name": "STARLINK-35684",
        "meta_object_id": "2025-262C",
        "meta_epoch": "2025-12-13T05:29:38.793408",
        "meta_mean_motion": 15.40783286,
        "meta_eccentricity": 8.959e-05,
        "meta_inclination": 42.9987,
        "meta_ra_of_asc_node": 68.7638,
        "meta_arg_of_pericenter": 196.7838,
        "meta_mean_anomaly": 163.2989,
        "meta_ephemeris_type": 0,
        "meta_classification_type": "U",
        "meta_norad_cat_id": 66458,
        "meta_element_set_no": 999,
        "meta_rev_at_epoch": 563,
        "meta_bstar": 0.0019860791,
        "meta_mean_motion_dot": 0.00083808,
        "meta_mean_motion_ddot": 0,
        "tle_line1": "1 66458U 25262C   25347.22892122  .00083808  00000+0  19861-2 0  9998",
        "tle_line2": "2 66458  42.9987  68.7638 0000895 196.7838 163.2989 15.40783286  5638"
      },
      "geometry": {
        "type": "Point",
        "coordinates": [
          73.27289656121675,
          7.96156503856244
        ]
      }
    },
    {
      "type": "Feature",
      "properties": {
        "norad_id": 66459,
        "name": "STARLINK-35449",
        "group": "last-30-days",
        "lat": 23.945767930173982,
        "lon": 93.03689779045256,
        "alt_km": 440.3889359206687,
        "timestamp": "2025-12-13T22:39:28.442766+00:00",
        "meta_object_name": "STARLINK-35449",
        "meta_object_id": "2025-262D",
        "meta_epoch": "2025-12-13T06:56:32.686080",
        "meta_mean_motion": 15.40771765,
        "meta_eccentricity": 0.00023477,
        "meta_inclination": 43.002,
        "meta_ra_of_asc_node": 68.3522,
        "meta_arg_of_pericenter": 279.745,
        "meta_mean_anomaly": 80.3142,
        "meta_ephemeris_type": 0,
        "meta_classification_type": "U",
        "meta_norad_cat_id": 66459,
        "meta_element_set_no": 999,
        "meta_rev_at_epoch": 564,
        "meta_bstar": 0.0016140023,
        "meta_mean_motion_dot": 0.00067884,
        "meta_mean_motion_ddot": 0,
        "tle_line1": "1 66459U 25262D   25347.28926720  .00067884  00000+0  16140-2 0  9990",
        "tle_line2": "2 66459  43.0020  68.3522 0002347 279.7450  80.3142 15.40771765  5643"
      },
      "geometry": {
        "type": "Point",
        "coordinates": [
          93.03689779045256,
          23.945767930173982
        ]
      }
    },
    {
      "type": "Feature",
      "properties": {
        "norad_id": 66460,
        "name": "STARLINK-35424",
        "group": "last-30-days",
        "lat": 30.794577509245048,
        "lon": 104.30853540272032,
        "alt_km": 440.0047328504734,
        "timestamp": "2025-12-13T22:39:28.442778+00:00",
        "meta_object_name": "STARLINK-35424",
        "meta_object_id": "2025-262E",
        "meta_epoch": "2025-12-13T00:00:07.999776",
        "meta_mean_motion": 15.40633341,
        "meta_eccentricity": 0.00016002,
        "meta_inclination": 43.0006,
        "meta_ra_of_asc_node": 69.9902,
        "meta_arg_of_pericenter": 252.8909,
        "meta_mean_anomaly": 313.8379,
        "meta_ephemeris_type": 0,
        "meta_classification_type": "U",
        "meta_norad_cat_id": 66460,
        "meta_element_set_no": 999,
        "meta_rev_at_epoch": 568,
        "meta_bstar": 0.0011432771,
        "meta_mean_motion_dot": 0.00047647,
        "meta_mean_motion_ddot": 0,
        "tle_line1": "1 66460U 25262E   25347.00009259  .00047647  00000+0  11433-2 0  9996",
        "tle_line2": "2 66460  43.0006  69.9902 0001600 252.8909 313.8379 15.40633341  5687"
      },
      "geometry": {
        "type": "Point",
        "coordinates": [
          104.30853540272032,
          30.794577509245048
        ]
      }
    }
  ]
}